start=new Date('2022-03-27T00:00:00.000Z').valueOf();
sats=[{"MEAN_MOTION":"15.23930754","ECCENTRICITY":"0.00044080","MEAN_ELEMENT_THEORY":"SGP4","ELEMENT_SET_NO":"999","NORAD_CAT_ID":"44238","MEAN_MOTION_DOT":"0.00031204","PERIOD":"94.492","RA_OF_ASC_NODE":"136.2263","DECAY_DATE":null,"REV_AT_EPOCH":"15554","ARG_OF_PERICENTER":"48.7744","TLE_LINE1":"1 44238U 19029D   22085.53690037  .00031204  00000-0  12824-2 0  9991","RCS_SIZE":"LARGE","CENTER_NAME":"EARTH","REF_FRAME":"TEME","SITE":"AFETR","INCLINATION":"53.0099","GP_ID":"199744475","EPOCH":"2022-03-26T12:53:08.191968","OBJECT_NAME":"STARLINK-24","MEAN_MOTION_DDOT":"0.0000000000000","OBJECT_TYPE":"PAYLOAD","APOAPSIS":"497.029","PERIAPSIS":"490.971","MEAN_ANOMALY":"311.3631","FILE":"3375254","BSTAR":"0.00128240000000","EPHEMERIS_TYPE":"0","SEMIMAJOR_AXIS":"6872.135","CLASSIFICATION_TYPE":"U","TIME_SYSTEM":"UTC","COUNTRY_CODE":"US","TLE_LINE2":"2 44238  53.0099 136.2263 0004408  48.7744 311.3631 15.23930754155549","OBJECT_ID":"2019-029D","LAUNCH_DATE":"2019-05-24"},{"MEAN_ANOMALY":"52.9758","APOAPSIS":"466.738","PERIAPSIS":"464.027","OBJECT_TYPE":"PAYLOAD","FILE":"3375650","BSTAR":"0.00192600000000","SEMIMAJOR_AXIS":"6843.517","EPHEMERIS_TYPE":"0","TIME_SYSTEM":"UTC","CLASSIFICATION_TYPE":"U","COUNTRY_CODE":"US","OBJECT_ID":"2019-029Q","LAUNCH_DATE":"2019-05-24","TLE_LINE2":"2 44249  52.9755  96.8618 0001981 307.1061  52.9758 15.33499762156808","MEAN_MOTION":"15.33499762","ECCENTRICITY":"0.00019810","MEAN_ELEMENT_THEORY":"SGP4","ELEMENT_SET_NO":"999","DECAY_DATE":null,"REV_AT_EPOCH":"15680","PERIOD":"93.903","MEAN_MOTION_DOT":"0.00063417","RA_OF_ASC_NODE":"96.8618","NORAD_CAT_ID":"44249","CENTER_NAME":"EARTH","RCS_SIZE":"LARGE","TLE_LINE1":"1 44249U 19029Q   22085.73946616  .00063417  00000-0  19260-2 0  9994","ARG_OF_PERICENTER":"307.1061","INCLINATION":"52.9755","REF_FRAME":"TEME","SITE":"AFETR","MEAN_MOTION_DDOT":"0.0000000000000","OBJECT_NAME":"STARLINK-61","GP_ID":"199777169","EPOCH":"2022-03-26T17:44:49.876224"},{"MEAN_MOTION":"15.26416155","ELEMENT_SET_NO":"999","MEAN_ELEMENT_THEORY":"SGP4","ECCENTRICITY":"0.00057490","CENTER_NAME":"EARTH","RCS_SIZE":"LARGE","TLE_LINE1":"1 44252U 19029T   22085.54499094  .00026332  00000-0  10072-2 0  9997","ARG_OF_PERICENTER":"49.5577","REV_AT_EPOCH":"15622","DECAY_DATE":null,"MEAN_MOTION_DOT":"0.00026332","PERIOD":"94.339","RA_OF_ASC_NODE":"133.4534","NORAD_CAT_ID":"44252","MEAN_MOTION_DDOT":"0.0000000000000","OBJECT_NAME":"STARLINK-71","GP_ID":"199742973","EPOCH":"2022-03-26T13:04:47.217216","INCLINATION":"52.9977","REF_FRAME":"TEME","SITE":"AFETR","MEAN_ANOMALY":"310.5920","APOAPSIS":"490.485","PERIAPSIS":"482.592","OBJECT_TYPE":"PAYLOAD","SEMIMAJOR_AXIS":"6864.673","EPHEMERIS_TYPE":"0","BSTAR":"0.00100720000000","FILE":"3375254","COUNTRY_CODE":"US","TIME_SYSTEM":"UTC","CLASSIFICATION_TYPE":"U","LAUNCH_DATE":"2019-05-24","OBJECT_ID":"2019-029T","TLE_LINE2":"2 44252  52.9977 133.4534 0005749  49.5577 310.5920 15.26416155156225"},{"TIME_SYSTEM":"UTC","CLASSIFICATION_TYPE":"U","COUNTRY_CODE":"US","OBJECT_ID":"2019-029AZ","LAUNCH_DATE":"2019-05-24","TLE_LINE2":"2 44282  53.0121  25.8777 0007251 123.5565 236.6138 15.54595535157292","MEAN_ANOMALY":"236.6138","APOAPSIS":"408.248","PERIAPSIS":"398.413","OBJECT_TYPE":"PAYLOAD","FILE":"3375650","BSTAR":"0.00249600000000","SEMIMAJOR_AXIS":"6781.466","EPHEMERIS_TYPE":"0","DECAY_DATE":null,"REV_AT_EPOCH":"15729","RA_OF_ASC_NODE":"25.8777","PERIOD":"92.629","MEAN_MOTION_DOT":"0.00171189","NORAD_CAT_ID":"44282","CENTER_NAME":"EARTH","RCS_SIZE":"LARGE","TLE_LINE1":"1 44282U 19029AZ  22085.81241790  .00171189  00000-0  24960-2 0  9990","ARG_OF_PERICENTER":"123.5565","INCLINATION":"53.0121","REF_FRAME":"TEME","SITE":"AFETR","MEAN_MOTION_DDOT":"0.0000000000000","OBJECT_NAME":"STARLINK-80","GP_ID":"199778171","EPOCH":"2022-03-26T19:29:52.906560","MEAN_MOTION":"15.54595535","ECCENTRICITY":"0.00072510","MEAN_ELEMENT_THEORY":"SGP4","ELEMENT_SET_NO":"999"},{"BSTAR":"0.00002872100000","FILE":"3375650","EPHEMERIS_TYPE":"0","SEMIMAJOR_AXIS":"6925.336","MEAN_ANOMALY":"282.9216","OBJECT_TYPE":"PAYLOAD","APOAPSIS":"548.058","PERIAPSIS":"546.343","TLE_LINE2":"2 44713  53.0532 188.6994 0001238  77.1911 282.9216 15.06404246131113","OBJECT_ID":"2019-074A","LAUNCH_DATE":"2019-11-11","TIME_SYSTEM":"UTC","CLASSIFICATION_TYPE":"U","COUNTRY_CODE":"US","MEAN_ELEMENT_THEORY":"SGP4","ECCENTRICITY":"0.00012380","ELEMENT_SET_NO":"999","MEAN_MOTION":"15.06404246","REF_FRAME":"TEME","SITE":"AFETR","INCLINATION":"53.0532","MEAN_MOTION_DDOT":"0.0000000000000","GP_ID":"199777960","EPOCH":"2022-03-26T18:02:54.867552","OBJECT_NAME":"STARLINK-1007","RA_OF_ASC_NODE":"188.6994","PERIOD":"95.592","MEAN_MOTION_DOT":"0.00000146","DECAY_DATE":null,"REV_AT_EPOCH":"13111","NORAD_CAT_ID":"44713","RCS_SIZE":"LARGE","CENTER_NAME":"EARTH","ARG_OF_PERICENTER":"77.1911","TLE_LINE1":"1 44713U 19074A   22085.75202393  .00000146  00000-0  28721-4 0  9993"},{"LAUNCH_DATE":"2019-11-11","OBJECT_ID":"2019-074B","TLE_LINE2":"2 44714  53.0543 189.1114 0001560  66.4981 293.6172 15.06400016131102","COUNTRY_CODE":"US","TIME_SYSTEM":"UTC","CLASSIFICATION_TYPE":"U","SEMIMAJOR_AXIS":"6925.349","EPHEMERIS_TYPE":"0","FILE":"3375650","BSTAR":"0.00012387000000","MEAN_ANOMALY":"293.6172","APOAPSIS":"548.294","PERIAPSIS":"546.133","OBJECT_TYPE":"PAYLOAD","MEAN_MOTION_DDOT":"0.0000000000000","OBJECT_NAME":"STARLINK-1008","GP_ID":"199776708","EPOCH":"2022-03-26T15:56:52.867392","INCLINATION":"53.0543","SITE":"AFETR","REF_FRAME":"TEME","CENTER_NAME":"EARTH","RCS_SIZE":"LARGE","TLE_LINE1":"1 44714U 19074B   22085.66450078  .00001564  00000-0  12387-3 0  9994","ARG_OF_PERICENTER":"66.4981","DECAY_DATE":null,"REV_AT_EPOCH":"13110","PERIOD":"95.592","RA_OF_ASC_NODE":"189.1114","MEAN_MOTION_DOT":"0.00001564","NORAD_CAT_ID":"44714","ELEMENT_SET_NO":"999","ECCENTRICITY":"0.00015600","MEAN_ELEMENT_THEORY":"SGP4","MEAN_MOTION":"15.06400016"},{"COUNTRY_CODE":"US","CLASSIFICATION_TYPE":"U","TIME_SYSTEM":"UTC","OBJECT_ID":"2019-074C","LAUNCH_DATE":"2019-11-11","TLE_LINE2":"2 44715  53.0539 189.4499 0001402  81.9077 278.2071 15.06394945131256","PERIAPSIS":"546.258","APOAPSIS":"548.200","OBJECT_TYPE":"PAYLOAD","MEAN_ANOMALY":"278.2071","SEMIMAJOR_AXIS":"6925.364","EPHEMERIS_TYPE":"0","FILE":"3375437","BSTAR":"-0.00004209300000","TLE_LINE1":"1 44715U 19074C   22085.58710368 -.00000908  00000-0 -42093-4 0  9998","ARG_OF_PERICENTER":"81.9077","CENTER_NAME":"EARTH","RCS_SIZE":"LARGE","NORAD_CAT_ID":"44715","REV_AT_EPOCH":"13125","DECAY_DATE":null,"PERIOD":"95.592","RA_OF_ASC_NODE":"189.4499","MEAN_MOTION_DOT":"-0.00000908","OBJECT_NAME":"STARLINK-1009","GP_ID":"199753026","EPOCH":"2022-03-26T14:05:25.757952","MEAN_MOTION_DDOT":"0.0000000000000","INCLINATION":"53.0539","SITE":"AFETR","REF_FRAME":"TEME","MEAN_MOTION":"15.06394945","ELEMENT_SET_NO":"999","MEAN_ELEMENT_THEORY":"SGP4","ECCENTRICITY":"0.00014020"},{"PERIAPSIS":"546.277","APOAPSIS":"548.143","OBJECT_TYPE":"PAYLOAD","MEAN_ANOMALY":"281.0208","FILE":"3375650","BSTAR":"0.00012780000000","SEMIMAJOR_AXIS":"6925.345","EPHEMERIS_TYPE":"0","CLASSIFICATION_TYPE":"U","TIME_SYSTEM":"UTC","COUNTRY_CODE":"US","OBJECT_ID":"2019-074D","LAUNCH_DATE":"2019-11-11","TLE_LINE2":"2 44716  53.0536 188.4796 0001347  79.0932 281.0208 15.06401163131108","MEAN_MOTION":"15.06401163","ECCENTRICITY":"0.00013470","MEAN_ELEMENT_THEORY":"SGP4","ELEMENT_SET_NO":"999","NORAD_CAT_ID":"44716","DECAY_DATE":null,"REV_AT_EPOCH":"13110","PERIOD":"95.592","RA_OF_ASC_NODE":"188.4796","MEAN_MOTION_DOT":"0.00001623","TLE_LINE1":"1 44716U 19074D   22085.80456678  .00001623  00000-0  12780-3 0  9997","ARG_OF_PERICENTER":"79.0932","CENTER_NAME":"EARTH","RCS_SIZE":"LARGE","INCLINATION":"53.0536","SITE":"AFETR","REF_FRAME":"TEME","OBJECT_NAME":"STARLINK-1010","EPOCH":"2022-03-26T19:18:34.569792","GP_ID":"199777710","MEAN_MOTION_DDOT":"0.0000000000000"},{"APOAPSIS":"548.319","PERIAPSIS":"546.138","OBJECT_TYPE":"PAYLOAD","MEAN_ANOMALY":"302.5571","SEMIMAJOR_AXIS":"6925.364","EPHEMERIS_TYPE":"0","FILE":"3375650","BSTAR":"-0.00000828830000","COUNTRY_CODE":"US","CLASSIFICATION_TYPE":"U","TIME_SYSTEM":"UTC","LAUNCH_DATE":"2019-11-11","OBJECT_ID":"2019-074E","TLE_LINE2":"2 44717  53.0543 208.4662 0001575  57.5570 302.5571 15.06395109130848","MEAN_MOTION":"15.06395109","ELEMENT_SET_NO":"999","MEAN_ELEMENT_THEORY":"SGP4","ECCENTRICITY":"0.00015750","TLE_LINE1":"1 44717U 19074E   22085.80272754 -.00000405  00000-0 -82883-5 0  9991","ARG_OF_PERICENTER":"57.5570","CENTER_NAME":"EARTH","RCS_SIZE":"LARGE","NORAD_CAT_ID":"44717","REV_AT_EPOCH":"13084","DECAY_DATE":null,"MEAN_MOTION_DOT":"-0.00000405","PERIOD":"95.592","RA_OF_ASC_NODE":"208.4662","OBJECT_NAME":"STARLINK-1011","EPOCH":"2022-03-26T19:15:55.659456","GP_ID":"199778461","MEAN_MOTION_DDOT":"0.0000000000000","INCLINATION":"53.0543","SITE":"AFETR","REF_FRAME":"TEME"},{"FILE":"3375254","BSTAR":"0.00013459000000","EPHEMERIS_TYPE":"0","SEMIMAJOR_AXIS":"6925.324","OBJECT_TYPE":"PAYLOAD","PERIAPSIS":"546.210","APOAPSIS":"548.168","MEAN_ANOMALY":"280.9322","TLE_LINE2":"2 44718  53.0535 189.4978 0001414  79.1826 280.9322 15.06408096131084","OBJECT_ID":"2019-074F","LAUNCH_DATE":"2019-11-11","CLASSIFICATION_TYPE":"U","TIME_SYSTEM":"UTC","COUNTRY_CODE":"US","MEAN_ELEMENT_THEORY":"SGP4","ECCENTRICITY":"0.00014140","ELEMENT_SET_NO":"999","MEAN_MOTION":"15.06408096","SITE":"AFETR","REF_FRAME":"TEME","INCLINATION":"53.0535","EPOCH":"2022-03-26T13:49:29.960544","GP_ID":"199743263","OBJECT_NAME":"STARLINK-1012","MEAN_MOTION_DDOT":"0.0000000000000","NORAD_CAT_ID":"44718","MEAN_MOTION_DOT":"0.00001724","PERIOD":"95.592","RA_OF_ASC_NODE":"189.4978","REV_AT_EPOCH":"13108","DECAY_DATE":null,"ARG_OF_PERICENTER":"79.1826","TLE_LINE1":"1 44718U 19074F   22085.57604121  .00001724  00000-0  13459-3 0  9997","RCS_SIZE":"LARGE","CENTER_NAME":"EARTH"}];
